OSCAR 7 (AO-7)          
1 07530U 74089B   19208.88689503 -.00000032  00000-0  81407-4 0  9990
2 07530 101.7464 176.1506 0011723 272.3666 142.9465 12.53639118 45438
UOSAT 2 (UO-11)         
1 14781U 84021B   19209.03408028  .00000037  00000-0  10670-4 0  9990
2 14781  97.6090 231.8880 0008373 180.1485 179.9729 14.83097221904590
LUSAT (LO-19)           
1 20442U 90005G   19208.91194946 -.00000031  00000-0  50111-5 0  9997
2 20442  98.6498 150.8498 0012532  38.3969 321.8105 14.32929447541931
ITAMSAT (IO-26)         
1 22826U 93061D   19209.51320073 -.00000008  00000-0  14724-4 0  9992
2 22826  98.8990 199.0489 0008043 227.2427 132.8078 14.30396831347849
RADIO ROSTO (RS-15)     
1 23439U 94085A   19208.89465968 -.00000027  00000-0  42818-3 0  9998
2 23439  64.8175  52.7287 0146169 105.5779 256.1332 11.27568565 12311
JAS-2 (FO-29)           
1 24278U 96046B   19208.88906816  .00000003  00000-0  36171-4 0  9999
2 24278  98.5426 356.9891 0351103 138.2656 224.5843 13.53092952133109
TECHSAT 1B (GO-32)      
1 25397U 98043D   19208.90651879 -.00000024  00000-0  89041-5 0  9999
2 25397  98.6898 148.5786 0000377 345.8718  14.2450 14.23668183 93233
ISS (ZARYA)             
1 25544U 98067A   19209.36461885  .00000444  00000-0  15350-4 0  9992
2 25544  51.6432 156.9726 0006415 187.1862 315.8077 15.51005864181644
PCSAT (NO-44)           
1 26931U 01043C   19208.58272391 -.00000026  00000-0  21729-4 0  9990
2 26931  67.0504 263.3235 0007275 276.0538  83.9734 14.30547824930533
SAUDISAT 1C (SO-50)     
1 27607U 02058C   19209.12706299 -.00000050  00000-0  13957-4 0  9999
2 27607  64.5552 289.0284 0079931 248.9382 110.3160 14.75560925892857
CUTE-1 (CO-55)          
1 27844U 03031E   19208.98091133  .00000036  00000-0  36124-4 0  9995
2 27844  98.6836 216.6062 0008591 279.0550  80.9655 14.22186907833873
CUBESAT XI-IV (CO-57)   
1 27848U 03031J   19208.98424096  .00000017  00000-0  27503-4 0  9997
2 27848  98.6913 217.1181 0008584 292.3121  67.7146 14.21781000833721
MOZHAYETS 4 (RS-22)     
1 27939U 03042A   19209.40928229  .00000129  00000-0  31799-4 0  9991
2 27939  98.0455 344.4623 0012033 305.6483  54.3609 14.66792685846365
CUBESAT XI-V            
1 28895U 05043F   19208.88499813  .00000065  00000-0  21376-4 0  9998
2 28895  97.9643 350.2840 0015848 224.3771 135.6162 14.63677648732981
CUTE-1.7+APD II (CO-65) 
1 32785U 08021C   19208.88154262  .00000114  00000-0  17924-4 0  9995
2 32785  97.5502 206.7490 0014293 128.6566 231.5933 14.88324020609515
DELFI-C3 (DO-64)        
1 32789U 08021G   19208.92657810  .00000462  00000-0  34832-4 0  9994
2 32789  97.4618 257.4032 0011929 359.8724   0.2498 15.07018761612771
SEEDS II (CO-66)        
1 32791U 08021J   19208.56555680  .00000272  00000-0  32893-4 0  9993
2 32791  97.5279 212.4605 0014924 106.5510 253.7350 14.90840095609821
YUBILEINY (RS-30)       
1 32953U 08025A   19208.84026153  .00000021  00000-0  75656-4 0  9992
2 32953  82.5028 120.4230 0020311  44.9535 315.3181 12.43090767507179
KKS-1 (KISEKI)          
1 33499U 09002H   19209.14412590  .00000042  00000-0  14196-4 0  9997
2 33499  98.3484  49.1052 0010512  82.0545 278.1856 14.75450635565047
SWISSCUBE               
1 35932U 09051B   19208.76037287  .00000097  00000-0  33068-4 0  9997
2 35932  98.5915  15.8836 0008546  52.3033 307.8938 14.56295283522429
BEESAT-1                
1 35933U 09051C   19208.69226731  .00000072  00000-0  27291-4 0  9998
2 35933  98.5939  17.5892 0006928  65.2027 294.9890 14.56383070522565
ITUPSAT1                
1 35935U 09051E   19208.90993119  .00000065  00000-0  26148-4 0  9997
2 35935  98.6050  18.0487 0009181  60.6815 299.5298 14.55541729522318
XIWANG-1 (HOPE-1)       
1 36122U 09072B   19208.72611897 -.00000033  00000-0  22955-4 0  9997
2 36122 100.0731 209.2698 0006923 255.1244 104.9105 13.16350413462017
JUGNU                   
1 37839U 11058B   19209.09700289  .00000280  00000-0  75656-5 0  9995
2 37839  19.9617  95.8168 0018921  41.7196 110.9440 14.12654606402832
SRMSAT                  
1 37841U 11058D   19209.19902598  .00000275  00000-0  60945-5 0  9995
2 37841  19.9714 152.7904 0011703 270.4113 223.5536 14.10635510402271
M-CUBED & EXP-1 PRIME   
1 37855U 11061F   19208.81158600  .00000525  00000-0  34510-4 0  9995
2 37855 101.7111 124.4880 0173349 320.9323  37.9473 15.05500695422667
STRAND-1                
1 39090U 13009E   19208.90028468  .00000005  00000-0  16890-4 0  9994
2 39090  98.4855  54.1946 0009354 164.9575 195.1890 14.35091113335999
SOMP                    
1 39134U 13015E   19208.63423517  .00000497  00000-0  32074-4 0  9991
2 39134  64.8622 254.2674 0033312 296.6333  63.1383 15.20213173346130
BEESAT-3                
1 39135U 13015F   19208.62550206  .00000324  00000-0  25959-4 0  9990
2 39135  64.8692 273.1423 0026605 313.5286  46.3629 15.17516227346153
BEESAT-2                
1 39136U 13015G   19208.61126107  .00000133  00000-0  16755-4 0  9991
2 39136  64.8698 277.1256 0021104 299.8906  60.0123 15.16942002346078
ZACUBE-1 (TSHEPISOSAT)  
1 39417U 13066B   19209.15870671  .00000114  00000-0  20897-4 0  9992
2 39417  97.5618 220.4420 0057337 264.5048  94.9624 14.81128324306883
GOMX-1                  
1 39430U 13066Q   19209.53024438  .00000100  00000-0  26790-4 0  9994
2 39430  97.7492 163.4658 0152092 128.2755 233.2228 14.59263926302410
CUBEBUG-2 (LO-74)       
1 39440U 13066AA  19208.93850294  .00000123  00000-0  24291-4 0  9994
2 39440  97.6030 205.0599 0079216 318.3930  41.1269 14.75866517304560
FUNCUBE-1 (AO-73)       
1 39444U 13066AE  19208.93491121  .00000151  00000-0  25037-4 0  9998
2 39444  97.5598 222.2147 0056458 258.7774 100.7090 14.81949580305157
UWE-3                   
1 39446U 13066AG  19208.94309304  .00000122  00000-0  23099-4 0  9996
2 39446  97.5814 212.1303 0068535 292.5342  66.8626 14.78400949304476
SPROUT                  
1 39770U 14029E   19209.52541385  .00000345  00000-0  44307-4 0  9990
2 39770  97.8855 312.5627 0008682 323.0820  36.9804 14.87371028280751
UNISAT-6                
1 40012U 14033C   19208.77717640  .00000101  00000-0  22534-4 0  9999
2 40012  97.7530  73.6953 0057742 333.2034  26.6195 14.73988778274448
DUCHIFAT-1              
1 40021U 14033M   19208.81310515  .00000277  00000-0  34128-4 0  9990
2 40021  97.9232 133.5365 0011475 283.7024  76.2916 14.90648277277376
QB50P1                  
1 40025U 14033R   19209.41697806  .00000094  00000-0  16033-4 0  9994
2 40025  97.9047 129.0367 0011070 292.0431  67.9609 14.88957760277230
NUDT-PHONESAT           
1 40900U 15049B   19208.93234444  .00001230  00000-0  55412-4 0  9992
2 40900  97.4369 217.8806 0014434  51.6186  11.1236 15.22874975213637
ZDPS 2A                 
1 40901U 15049C   19209.56958821  .00000362  00000-0  21235-4 0  9996
2 40901  97.4601 214.8164 0015056  66.9877  54.5191 15.17760274213280
ZDPS 2B                 
1 40902U 15049D   19209.53246803  .00000818  00000-0  43944-4 0  9991
2 40902  97.4543 212.2526 0015252  64.0446  50.9971 15.17591044213259
XW-2A                   
1 40903U 15049E   19208.84072049  .00001067  00000-0  27040-4 0  9990
2 40903  97.3343 251.8207 0013837  11.2540  44.0537 15.41939719216288
KAITUO 1A               
1 40904U 15049F   19209.22726236  .00000123  00000-0  10006-4 0  9994
2 40904  97.4673 210.5581 0016297  72.0788  56.5741 15.15381092212989
2015-049G               
1 40905U 15049G   19209.20344766  .00000406  00000-0  25676-4 0  9990
2 40905  97.4713 208.0474 0017194  68.2505  60.5209 15.14309671212851
XW-2C                   
1 40906U 15049H   19209.54780516  .00000469  00000-0  28022-4 0  9992
2 40906  97.4679 210.9654 0016480  63.0822  52.3624 15.15700415213030
XW-2D                   
1 40907U 15049J   19209.38666584  .00000422  00000-0  25460-4 0  9995
2 40907  97.4659 210.4853 0015762  62.4723  43.2306 15.15890136213025
LILACSAT-2              
1 40908U 15049K   19208.91799822  .00000327  00000-0  21690-4 0  9991
2 40908  97.4790 208.8292 0017489  69.0207 351.7152 15.13817776212749
XW-2F                   
1 40910U 15049M   19209.51170752  .00000354  00000-0  21056-4 0  9992
2 40910  97.4628 212.6527 0016252  55.2949  65.5365 15.17334052213059
XW-2B                   
1 40911U 15049N   19209.42756270  .00000349  00000-0  21673-4 0  9997
2 40911  97.4686 211.1806 0015755  62.3593  78.2758 15.15819002212922
KAITUO 1B               
1 40912U 15049P   19209.54764295  .00000762  00000-0  38884-4 0  9998
2 40912  97.4490 216.3824 0016272  38.3504  80.4868 15.19653588213368
TIANWANG 1C (TW-1C)     
1 40926U 15051B   19209.40056622  .00006503  00000-0  93792-4 0  9997
2 40926  97.1334 255.5332 0006793 211.5373 275.5321 15.56313954216334
TIANWANG 1A (TW-1A)     
1 40928U 15051D   19209.50053554  .00001871  00000-0  47397-4 0  9994
2 40928  97.1432 239.9225 0009532 294.1609 172.5866 15.40937803215309
LAPAN-A2                
1 40931U 15052B   19209.19949082  .00000963  00000-0  45167-4 0  9998
2 40931   6.0013 134.8684 0013106 351.6903   8.3345 14.76612543207114
E-ST@R-II               
1 41459U 16025D   19209.48419966 -.00000145  00000-0 -26042-5 0  9996
2 41459  98.0999 297.9931 0166434 224.2712 134.5100 15.05495986178533
AAUSAT 4                
1 41460U 16025E   19208.81280805  .00000365  00000-0  22790-4 0  9999
2 41460  98.0953 298.6232 0156739 218.8609 140.1238 15.07393112178566
NUSAT-1 (FRESCO)        
1 41557U 16033B   19208.89747063  .00000729  00000-0  29981-4 0  9990
2 41557  97.4180 296.1708 0014585 153.4125 206.7865 15.27268245176077
BEESAT-4                
1 41619U 16040W   19208.86657614  .00000726  00000-0  33656-4 0  9997
2 41619  97.3650 270.3567 0009784 241.5796 118.4455 15.23187000159825
CAS-2T & KS-1Q          
1 41847U 16066G   19208.71486363 -.00000004  00000-0  90365-5 0  9994
2 41847  98.7028 250.0602 0366997 118.7908 245.0653 14.37995911142606
NAYIF-1 (EO-88)         
1 42017U 17008BX  19208.72473698  .00000815  00000-0  34911-4 0  9992
2 42017  97.4009 275.4136 0007254  44.4393 315.7426 15.25594929135871
MAX VALIER SAT          
1 42778U 17036P   19208.71194311  .00000520  00000-0  25681-4 0  9995
2 42778  97.3517 265.5141 0014193  88.3172 271.9690 15.22058229116179
RADFXSAT (FOX-1B)       
1 43017U 17073E   19208.78213486  .00000505  00000-0  44582-4 0  9999
2 43017  97.7220 128.6112 0259077  31.4305 330.2097 14.78579650 91030
FOX-1D (AO-92)          
1 43137U 18004AC  19208.84106780  .00000526  00000-0  25030-4 0  9992
2 43137  97.4853 276.5529 0010865 115.3106 244.9257 15.23506541 85456
ES'HAIL 2               
1 43700U 18090A   19209.30237427  .00000146  00000-0  00000+0 0  9991
2 43700   0.0153  90.5892 0001413  62.8529 286.8935  1.00273728  2697
FOX-1CLIFF (AO-95)      
1 43770U 18099N   19208.79644345  .00000140  00000-0  18180-4 0  9997
2 43770  97.7434 280.1635 0014237 197.9703 162.1016 14.94780521 35269
ITASAT 1                
1 43786U 18099AE  19209.20508200  .00000379  00000-0  39727-4 0  9994
2 43786  97.7448 280.7490 0015057 190.8081 169.2819 14.95149710 35335
JY1SAT (JO-97)          
1 43803U 18099AX  19208.91868007 -.00000214  00000-0 -14110-4 0  9994
2 43803  97.7407 280.3769 0014907 192.8187 167.2657 14.95284040 35285
JAISAT-1                
1 44419U 19038F   19208.92990996  .00000343  00000-0  23487-4 0  9994
2 44419  97.4914 170.4594 0022088 168.4207 191.7536 15.12254842  3397
